STARLINK-31890          
1 59785U 24093D   26170.55227387 -.00000309  00000+0 -17103-5 0  9997
2 59785  43.0034 350.2022 0001072 258.8098 101.2634 15.27575692118314
STARLINK-31862          
1 59786U 24093E   26170.85173544  .00000909  00000+0  42574-4 0  9999
2 59786  43.0010 351.6107 0001375 266.0927  93.9767 15.27574385118329
STARLINK-31870          
1 59787U 24093F   26170.52095342  .00001111  00000+0  49909-4 0  9998
2 59787  43.0019 353.4276 0001447 282.1001  77.9688 15.27578408118276
STARLINK-31888          
1 59788U 24093G   26170.53122967 -.00000031  00000+0  84126-5 0  9996
2 59788  43.0023 353.5061 0001247 271.4072  88.6637 15.27573818118275
STARLINK-31863          
1 59789U 24093H   26170.85559306  .00000404  00000+0  24224-4 0  9998
2 59789  43.0055 351.6424 0001264 270.6164  89.4543 15.27574820118320
STARLINK-31873          
1 59790U 24093J   26169.81969925  .00000287  00000+0  20010-4 0  9994
2 59790  43.0092 357.6272 0003746 281.1223  78.9208 15.27573743118166
STARLINK-31865          
1 59791U 24093K   26170.54279185 -.00000975  00000+0 -25916-4 0  9995
2 59791  43.0017 353.5881 0001086 268.1669  91.9058 15.27580482118277
STARLINK-31823          
1 59794U 24093N   26170.54664861 -.00000130  00000+0  48164-5 0  9990
2 59794  43.0018 353.6156 0001212 275.3104  84.7609 15.27576568118274
STARLINK-31916          
1 59795U 24093P   26170.48511936 -.00000291  00000+0 -10426-5 0  9997
2 59795  43.0062 354.0161 0001491 278.5790  81.4892 15.27573713118266
STARLINK-31907          
1 59797U 24093R   26169.96458859  .00000276  00000+0  19579-4 0  9992
2 59797  43.0037 356.9870 0000952 277.8392  82.2352 15.27537141118185
STARLINK-31687          
1 59798U 24093S   26170.51339062 -.00000213  00000+0  17933-5 0  9995
2 59798  43.0022 354.2234 0001697 269.0498  91.0159 15.27573948118269
STARLINK-31810          
1 59799U 24093T   26170.23771208 -.00001018  00000+0 -27504-4 0  9996
2 59799  43.0020 355.5960 0000459 240.5805 119.5001 15.27574637118223
STARLINK-31812          
1 59800U 24093U   26170.55692881  .00000402  00000+0  24146-4 0  9996
2 59800  43.0038 353.6925 0000910 257.2839 102.7911 15.27575452118342
STARLINK-31815          
1 59801U 24093V   26170.49539243  .00000009  00000+0  98449-5 0  9993
2 59801  43.0042 354.0901 0001258 253.3830 106.6884 15.27579919118266
STARLINK-31814          
1 59802U 24093W   26170.58262321  .00000673  00000+0  33973-4 0  9991
2 59802  42.9997 353.8656 0001273 251.3814 108.6899 15.27580656118274
STARLINK-31794          
1 59803U 24093X   26170.57234563  .00000463  00000+0  26341-4 0  9996
2 59803  43.0041 353.8074 0001392 257.0422 103.0274 15.27577337118347
STARLINK-31824          
1 59804U 24093Y   26170.24153637  .00015114  00000+0  55660-3 0  9997
2 59804  43.0040 355.6272 0001161 299.3483  60.7252 15.27640575118224
2024-094A               
1 59805U 24094A   26170.86919234  .00005307  00000+0  27362-3 0  9991
2 59805  97.3864 241.6052 0005203 172.8818 187.2490 15.16769176115570
2024-094B               
1 59806U 24094B   26170.83964686  .00004836  00000+0  24966-3 0  9993
2 59806  97.3891 241.7945 0006716 117.0124 243.1796 15.16753579115564
2024-094C               
1 59807U 24094C   26170.85476318  .00004910  00000+0  25251-3 0  9997
2 59807  97.3915 241.9834 0003125 174.7905 185.3361 15.16896681115566
2024-094D               
1 59808U 24094D   26170.88301722  .00005283  00000+0  27059-3 0  9999
2 59808  97.3839 241.4044 0003046 191.8018 168.3144 15.17005282115567
2024-092K               
1 59809U 24092K   26170.31212544  .00016529  00000+0  46239-3 0  9995
2 59809  97.6578 303.2401 0008077 139.7910 220.3932 15.36712875115564
2024-095A               
1 59810U 24095A   26170.85751766  .00003041  00000+0  18414-3 0  9992
2 59810  97.5343 249.7263 0001164 289.9073  70.2032 15.11351266114549
STARLINK-31947          
1 59835U 24097A   26170.39358662  .00001482  00000+0  63342-4 0  9996
2 59835  43.0019  59.7778 0000950 279.0294  81.0450 15.27583675117476
STARLINK-31929          
1 59836U 24097B   26170.10649087  .00000632  00000+0  32492-4 0  9998
2 59836  43.0028  61.9165 0001334 263.5708  96.4991 15.27575532117425
STARLINK-31927          
1 59837U 24097C   26170.41157684  .00001655  00000+0  69670-4 0  9994
2 59837  43.0012  59.9123 0001167 277.0645  83.0074 15.27569402117472
STARLINK-31855          
1 59838U 24097D   26170.71666523  .00024513  00000+0  89734-3 0  9995
2 59838  43.0004  57.8904 0001511 276.0400  84.0279 15.27579411117524
STARLINK-31887          
1 59839U 24097E   26169.97957514  .00000171  00000+0  15732-4 0  9997
2 59839  43.0010  62.6792 0001119 266.2106  93.8618 15.27575492117406
STARLINK-31852          
1 59841U 24097G   26170.02264959  .00000516  00000+0  28294-4 0  9992
2 59841  43.0023  54.3580 0001202 265.7406  94.3308 15.27575725117508
STARLINK-31906          
1 59842U 24097H   26170.74622086  .00000553  00000+0  29624-4 0  9990
2 59842  43.0060  58.1191 0001189 266.7166  93.3550 15.27575619117520
