OBJECT_NAME,OBJECT_ID,EPOCH,MEAN_MOTION,ECCENTRICITY,INCLINATION,RA_OF_ASC_NODE,ARG_OF_PERICENTER,MEAN_ANOMALY,EPHEMERIS_TYPE,CLASSIFICATION_TYPE,NORAD_CAT_ID,ELEMENT_SET_NO,REV_AT_EPOCH,BSTAR,MEAN_MOTION_DOT,MEAN_MOTION_DDOT
STARLINK-31890,2024-093D,2026-06-19T13:15:16.462368,15.27575692,.00010723,43.0034,350.2022,258.8098,101.2634,0,U,59785,999,11831,-.1710338E-5,-.309E-5,0
STARLINK-31862,2024-093E,2026-06-19T20:26:29.942016,15.27574385,.0001375,43.0010,351.6107,266.0927,93.9767,0,U,59786,999,11832,.42574E-4,.909E-5,0
STARLINK-31870,2024-093F,2026-06-19T12:30:10.375488,15.27578408,.00014472,43.0019,353.4276,282.1001,77.9688,0,U,59787,999,11827,.49908876E-4,.1111E-4,0
STARLINK-31888,2024-093G,2026-06-19T12:44:58.243488,15.27573818,.00012475,43.0023,353.5061,271.4072,88.6637,0,U,59788,999,11827,.8412609E-5,-.31E-6,0
STARLINK-31863,2024-093H,2026-06-19T20:32:03.240384,15.27574820,.0001264,43.0055,351.6424,270.6164,89.4543,0,U,59789,999,11832,.24224E-4,.404E-5,0
STARLINK-31873,2024-093J,2026-06-18T19:40:22.015200,15.27573743,.00037462,43.0092,357.6272,281.1223,78.9208,0,U,59790,999,11816,.20009744E-4,.287E-5,0
STARLINK-31865,2024-093K,2026-06-19T13:01:37.215840,15.27580482,.00010862,43.0017,353.5881,268.1669,91.9058,0,U,59791,999,11827,-.25916486E-4,-.975E-5,0
STARLINK-31823,2024-093N,2026-06-19T13:07:10.439904,15.27576568,.00012128,43.0018,353.6156,275.3104,84.7609,0,U,59794,999,11827,.4816403E-5,-.13E-5,0
STARLINK-31916,2024-093P,2026-06-19T11:38:34.312704,15.27573713,.00014915,43.0062,354.0161,278.5790,81.4892,0,U,59795,999,11826,-.1042643E-5,-.291E-5,0
STARLINK-31907,2024-093R,2026-06-18T23:09:00.454176,15.27537141,.00009522,43.0037,356.9870,277.8392,82.2352,0,U,59797,999,11818,.19579271E-4,.276E-5,0
STARLINK-31687,2024-093S,2026-06-19T12:19:16.949568,15.27573948,.00016979,43.0022,354.2234,269.0498,91.0159,0,U,59798,999,11826,.1793316E-5,-.213E-5,0
STARLINK-31810,2024-093T,2026-06-19T05:42:18.323712,15.27574637,.0000459,43.0020,355.5960,240.5805,119.5001,0,U,59799,999,11822,-.27504493E-4,-.1018E-4,0
STARLINK-31812,2024-093U,2026-06-19T13:21:58.649184,15.27575452,.000091,43.0038,353.6925,257.2839,102.7911,0,U,59800,999,11834,.2414551E-4,.402E-5,0
STARLINK-31815,2024-093V,2026-06-19T11:53:21.905952,15.27579919,.00012581,43.0042,354.0901,253.3830,106.6884,0,U,59801,999,11826,.9844884E-5,.9E-7,0
STARLINK-31814,2024-093W,2026-06-19T13:58:58.645344,15.27580656,.00012731,42.9997,353.8656,251.3814,108.6899,0,U,59802,999,11827,.33973015E-4,.673E-5,0
STARLINK-31794,2024-093X,2026-06-19T13:44:10.662432,15.27577337,.0001392,43.0041,353.8074,257.0422,103.0274,0,U,59803,999,11834,.26341089E-4,.463E-5,0
STARLINK-31824,2024-093Y,2026-06-19T05:47:48.742368,15.27640575,.00011612,43.0040,355.6272,299.3483,60.7252,0,U,59804,999,11822,.55659841E-3,.15114E-3,0
2024-094A,2024-094A,2026-06-19T20:51:38.218176,15.16769176,.0005203,97.3864,241.6052,172.8818,187.2490,0,U,59805,999,11557,.27362E-3,.5307E-4,0
2024-094B,2024-094B,2026-06-19T20:09:05.488704,15.16753579,.0006716,97.3891,241.7945,117.0124,243.1796,0,U,59806,999,11556,.24966E-3,.4836E-4,0
2024-094C,2024-094C,2026-06-19T20:30:51.538752,15.16896681,.0003125,97.3915,241.9834,174.7905,185.3361,0,U,59807,999,11556,.25251E-3,.491E-4,0
2024-094D,2024-094D,2026-06-19T21:11:32.687808,15.17005282,.0003046,97.3839,241.4044,191.8018,168.3144,0,U,59808,999,11556,.27059E-3,.5283E-4,0
2024-092K,2024-092K,2026-06-19T07:29:27.638016,15.36712875,.00080772,97.6578,303.2401,139.7910,220.3932,0,U,59809,999,11556,.46238577E-3,.16529E-3,0
2024-095A,2024-095A,2026-06-19T20:34:49.525824,15.11351266,.0001164,97.5343,249.7263,289.9073,70.2032,0,U,59810,999,11454,.18414E-3,.3041E-4,0
STARLINK-31947,2024-097A,2026-06-19T09:26:45.883968,15.27583675,.00009505,43.0019,59.7778,279.0294,81.0450,0,U,59835,999,11747,.63341856E-4,.1482E-4,0
STARLINK-31929,2024-097B,2026-06-19T02:33:20.811168,15.27575532,.00013344,43.0028,61.9165,263.5708,96.4991,0,U,59836,999,11742,.32491671E-4,.632E-5,0
STARLINK-31927,2024-097C,2026-06-19T09:52:40.238976,15.27569402,.00011678,43.0012,59.9123,277.0645,83.0074,0,U,59837,999,11747,.69669622E-4,.1655E-4,0
STARLINK-31855,2024-097D,2026-06-19T17:11:59.875872,15.27579411,.0001511,43.0004,57.8904,276.0400,84.0279,0,U,59838,999,11752,.89734E-3,.24513E-3,0
STARLINK-31887,2024-097E,2026-06-18T23:30:35.292096,15.27575492,.0001119,43.0010,62.6792,266.2106,93.8618,0,U,59839,999,11740,.15732E-4,.171E-5,0
STARLINK-31852,2024-097G,2026-06-19T00:32:36.924576,15.27575725,.00012028,43.0023,54.3580,265.7406,94.3308,0,U,59841,999,11750,.28294376E-4,.516E-5,0
STARLINK-31906,2024-097H,2026-06-19T17:54:33.482304,15.27575619,.0001189,43.0060,58.1191,266.7166,93.3550,0,U,59842,999,11752,.29624E-4,.553E-5,0
